NORAD_CAT_ID,OBJECT_NAME,OBJECT_TYPE,EPOCH,MEAN_MOTION,ECCENTRICITY,INCLINATION,RA_OF_ASC_NODE,ARG_OF_PERICENTER,MEAN_ANOMALY,BSTAR,MEAN_MOTION_DOT,MEAN_MOTION_DDOT,TLE_LINE0,TLE_LINE1,TLE_LINE2,SEMIMAJOR_AXIS,PERIOD,APOGEE,PERIGEE,DECAYED
53530.0,STARLINK-4482,PAYLOAD,2023-01-25 12:04:01,15.08847713,5.89e-05,53.2173,148.1252,69.783,290.3226,3.286e-05,2.36e-06,0.0,0 STARLINK-4482,1 53530U 22101D   23025.50279307  .00000236  00000-0  32860-4 0  9991,2 53530  53.2173 148.1252 0000589  69.7830 290.3226 15.08847713 24180,6917.857,95.437,540.129,539.314,0.0
53530.0,STARLINK-4482,PAYLOAD,2023-01-25 13:39:24,15.08847884,5.68e-05,53.2171,147.8279,68.1313,291.974,3.325e-05,2.42e-06,0.0,0 STARLINK-4482,1 53530U 22101D   23025.56903262  .00000242  00000-0  33250-4 0  9992,2 53530  53.2171 147.8279 0000568  68.1313 291.9740 15.08847884 24197,6917.856,95.437,540.114,539.328,0.0
53530.0,STARLINK-4482,PAYLOAD,2023-01-25 15:14:47,15.08849328,6.55e-05,53.2168,147.5313,68.9339,291.1723,5.0184e-05,5.11e-06,0.0,0 STARLINK-4482,1 53530U 22101D   23025.63527091  .00000511  00000-0  50184-4 0  9996,2 53530  53.2168 147.5313 0000655  68.9339 291.1723 15.08849328 24202,6917.852,95.437,540.17,539.264,0.0
53530.0,STARLINK-4482,PAYLOAD,2023-01-26 11:54:48,15.08841897,9.36e-05,53.2174,143.6674,92.8848,267.2251,-1.5459000000000002e-05,-5.34e-06,0.0,0 STARLINK-4482,1 53530U 22101D   23026.49639488 -.00000534  00000-0 -15459-4 0  9998,2 53530  53.2174 143.6674 0000936  92.8848 267.2251 15.08841897 24336,6917.875,95.437,540.387,539.092,0.0
53530.0,STARLINK-4482,PAYLOAD,2023-01-26 13:30:11,15.08843265,6.330000000000001e-05,53.2171,143.3703,41.4968,318.6072,2.1851e-06,-2.53e-06,0.0,0 STARLINK-4482,1 53530U 22101D   23026.56263435 -.00000253  00000-0  21851-5 0  9992,2 53530  53.2171 143.3703 0000633  41.4968 318.6072 15.08843265 24344,6917.87,95.437,540.173,539.298,0.0
53530.0,STARLINK-4482,PAYLOAD,2023-01-27 00:37:52,15.08850285,0.0001189999999999,53.218,141.2878,90.631,269.4818,-2.8287e-05,-7.38e-06,0.0,0 STARLINK-4482,1 53530U 22101D   23027.02630672 -.00000738  00000-0 -28287-4 0  9993,2 53530  53.2180 141.2878 0001190  90.6310 269.4818 15.08850285 24419,6917.849,95.437,540.5369999999999,538.891,0.0
53530.0,STARLINK-4482,PAYLOAD,2023-01-27 13:20:58,15.0884497,0.0001374,53.2183,138.9083,84.8169,275.298,5.862100000000001e-05,6.45e-06,0.0,0 STARLINK-4482,1 53530U 22101D   23027.55622833  .00000645  00000-0  58621-4 0  9991,2 53530  53.2183 138.9083 0001374  84.8169 275.2980 15.08844970 24491,6917.865,95.437,540.681,538.78,0.0
53530.0,STARLINK-4482,PAYLOAD,2023-01-27 14:56:21,15.08844848,0.0001468,53.2188,138.6112,87.9967,272.1194,8.6581e-05,1.09e-05,0.0,0 STARLINK-4482,1 53530U 22101D   23027.62246761  .00001090  00000-0  86581-4 0  9992,2 53530  53.2188 138.6112 0001468  87.9967 272.1194 15.08844848 24509,6917.866,95.437,540.746,538.715,0.0
53530.0,STARLINK-4482,PAYLOAD,2023-01-28 11:36:22,15.08833543,0.0001391,53.219,134.7466,82.0166,278.0984,2.1795e-05,5.9e-07,0.0,0 STARLINK-4482,1 53530U 22101D   23028.48359813  .00000059  00000-0  21795-4 0  9990,2 53530  53.2190 134.7466 0001391  82.0166 278.0984 15.08833543 24639,6917.9,95.438,540.727,538.803,0.0
53530.0,STARLINK-4482,PAYLOAD,2023-01-28 13:11:45,15.08838255,0.0001254,53.2184,134.4478,84.9957,275.1178,-4.9991e-06,-3.67e-06,0.0,0 STARLINK-4482,1 53530U 22101D   23028.54983566 -.00000367  00000-0 -49991-5 0  9998,2 53530  53.2184 134.4478 0001254  84.9957 275.1178 15.08838255 24648,6917.886,95.438,540.618,538.883,0.0
53530.0,STARLINK-4482,PAYLOAD,2023-01-28 16:22:31,15.08841059,0.000125,53.2173,133.852,76.5962,283.5169,1.2741e-05,-8.5e-07,0.0,0 STARLINK-4482,1 53530U 22101D   23028.68231355 -.00000085  00000-0  12741-4 0  9993,2 53530  53.2173 133.8520 0001250  76.5962 283.5169 15.08841059 24667,6917.877,95.437,540.607,538.877,0.0
53530.0,STARLINK-4482,PAYLOAD,2023-01-29 11:27:11,15.08823622,0.000154,53.2169,130.2862,84.9667,275.15,-9.7019e-05,-1.831e-05,0.0,0 STARLINK-4482,1 53530U 22101D   23029.47721366 -.00001831  00000-0 -97019-4 0  9999,2 53530  53.2169 130.2862 0001540  84.9667 275.1500 15.08823622 24784,6917.93,95.439,540.861,538.73,0.0
53530.0,STARLINK-4482,PAYLOAD,2023-01-29 13:02:34,15.08844002,0.0001419,53.2174,129.9895,88.0875,272.028,-0.00038433,-6.4e-05,0.0,0 STARLINK-4482,1 53530U 22101D   23029.54344951 -.00006400  00000-0 -38433-3 0  9999,2 53530  53.2174 129.9895 0001419  88.0875 272.0280 15.08844002 24799,6917.868,95.437,540.715,538.752,0.0
53530.0,STARLINK-4482,PAYLOAD,2023-01-30 09:42:34,15.08838839,0.0001245,53.2173,126.1235,60.0773,300.0343,0.00011735,1.58e-05,0.0,0 STARLINK-4482,1 53530U 22101D   23030.40456151  .00001580  00000-0  11735-3 0  9990,2 53530  53.2173 126.1235 0001245  60.0773 300.0343 15.08838839 24927,6917.884,95.438,540.61,538.888,0.0
53530.0,STARLINK-4482,PAYLOAD,2023-01-30 11:17:56,15.08850236,0.0001252,53.2174,125.822,101.7844,258.3289,0.0001443,2.01e-05,0.0,0 STARLINK-4482,1 53530U 22101D   23030.47079221  .00002010  00000-0  14430-3 0  9990,2 53530  53.2174 125.8220 0001252 101.7844 258.3289 15.08850236 24938,6917.849,95.437,540.58,538.848,0.0
53530.0,STARLINK-4482,PAYLOAD,2023-01-31 11:08:44,15.08830173,0.0001155,53.2178,121.3647,96.2056,263.9067,0.00023393,3.436e-05,0.0,0 STARLINK-4482,1 53530U 22101D   23031.46440181  .00003436  00000-0  23393-3 0  9998,2 53530  53.2178 121.3647 0001155  96.2056 263.9067 15.08830173 25082,6917.91,95.438,540.574,538.976,0.0
53530.0,STARLINK-4482,PAYLOAD,2023-01-31 14:19:30,15.08839132,0.0001195,53.2172,120.7703,86.5003,273.6126,0.00015831,2.232e-05,0.0,0 STARLINK-4482,1 53530U 22101D   23031.59687987  .00002232  00000-0  15831-3 0  9990,2 53530  53.2172 120.7703 0001195  86.5003 273.6126 15.08839132 25101,6917.883,95.438,540.575,538.921,0.0
53530.0,STARLINK-4482,PAYLOAD,2023-01-31 22:16:26,15.08837809,0.0001023,53.2173,119.2827,94.6629,265.448,3.231e-05,2.26e-06,0.0,0 STARLINK-4482,1 53530U 22101D   23031.92808325  .00000226  00000-0  32310-4 0  9991,2 53530  53.2173 119.2827 0001023  94.6629 265.4480 15.08837809 25152,6917.887,95.438,540.46,539.044,0.0
53530.0,STARLINK-4482,PAYLOAD,2023-02-01 10:59:31,15.08846379,0.0001185,53.2174,116.9039,91.4225,268.6903,-4.4579e-06,-3.59e-06,0.0,0 STARLINK-4482,1 53530U 22101D   23032.45799836 -.00000359  00000-0 -44579-5 0  9996,2 53530  53.2174 116.9039 0001185  91.4225 268.6903 15.08846379 25234,6917.861,95.437,540.546,538.906,0.0
53530.0,STARLINK-4482,PAYLOAD,2023-02-01 12:34:53,15.08850445,0.0001279,53.2174,116.6064,93.2917,266.8221,-2.8771e-05,-7.46e-06,0.0,0 STARLINK-4482,1 53530U 22101D   23032.52423594 -.00000746  00000-0 -28771-4 0  9994,2 53530  53.2174 116.6064 0001279  93.2917 266.8221 15.08850445 25244,6917.848,95.437,540.598,538.829,0.0
53530.0,STARLINK-4482,PAYLOAD,2023-02-02 14:01:04,15.08838795,0.000134,53.2189,111.851,89.8665,270.2481,-9.7944e-06,-4.44e-06,0.0,0 STARLINK-4482,1 53530U 22101D   23033.58408172 -.00000444  00000-0 -97944-5 0  9990,2 53530  53.2189 111.8510 0001340  89.8665 270.2481 15.08838795 25402,6917.884,95.438,540.676,538.822,0.0
53530.0,STARLINK-4482,PAYLOAD,2023-02-02 21:58:00,15.08838762,0.0001355,53.2186,110.3634,111.3946,248.719,-5.5685e-05,-1.174e-05,0.0,0 STARLINK-4482,1 53530U 22101D   23033.91528245 -.00001174  00000-0 -55685-4 0  9997,2 53530  53.2186 110.3634 0001355 111.3946 248.7190 15.08838762 25455,6917.884,95.438,540.687,538.812,0.0
53530.0,STARLINK-4482,PAYLOAD,2023-02-03 09:05:42,15.0883888,0.0001397,53.2185,108.2813,103.9404,256.1744,-6.2813e-05,-1.287e-05,0.0,0 STARLINK-4482,1 53530U 22101D   23034.37896488 -.00001287  00000-0 -62813-4 0  9991,2 53530  53.2185 108.2813 0001397 103.9404 256.1744 15.08838880 25528,6917.884,95.438,540.715,538.782,0.0
53530.0,STARLINK-4482,PAYLOAD,2023-02-04 05:45:42,15.08839544,0.0001203,53.2192,104.416,95.2754,264.8375,0.00010477,1.38e-05,0.0,0 STARLINK-4482,1 53530U 22101D   23035.24007985  .00001380  00000-0  10477-3 0  9994,2 53530  53.2192 104.4160 0001203  95.2754 264.8375 15.08839544 25654,6917.882,95.438,540.579,538.915,0.0
53530.0,STARLINK-4482,PAYLOAD,2023-02-04 12:07:14,15.08849188,0.0001416,53.2189,103.2259,99.6325,260.4828,0.00012261,1.664e-05,0.0,0 STARLINK-4482,1 53530U 22101D   23035.50503337  .00001664  00000-0  12261-3 0  9993,2 53530  53.2189 103.2259 0001416  99.6325 260.4828 15.08849188 25698,6917.852,95.437,540.697,538.738,0.0
53530.0,STARLINK-4482,PAYLOAD,2023-02-04 21:39:34,15.08840675,0.0001384,53.2192,101.4409,77.3607,282.754,7.0863e-05,8.4e-06,0.0,0 STARLINK-4482,1 53530U 22101D   23035.90248015  .00000840  00000-0  70863-4 0  9994,2 53530  53.2192 101.4409 0001384  77.3607 282.7540 15.08840675 25756,6917.878,95.438,540.701,538.786,0.0
53530.0,STARLINK-4482,PAYLOAD,2023-02-05 04:01:07,15.08831961,0.0001537,53.2191,100.2527,85.0338,275.0829,3.0436e-05,1.96e-06,0.0,0 STARLINK-4482,1 53530U 22101D   23036.16744858  .00000196  00000-0  30436-4 0  9995,2 53530  53.2191 100.2527 0001537  85.0338 275.0829 15.08831961 25797,6917.905,95.438,540.833,538.707,0.0
53530.0,STARLINK-4482,PAYLOAD,2023-02-05 08:47:16,15.08831245,0.0001146,53.2189,99.3597,100.5454,259.5667,0.00010712,1.417e-05,0.0,0 STARLINK-4482,1 53530U 22101D   23036.36616601  .00001417  00000-0  10712-3 0  9992,2 53530  53.2189  99.3597 0001146 100.5454 259.5667 15.08831245 25823,6917.907,95.438,540.565,538.979,0.0
53530.0,STARLINK-4482,PAYLOAD,2023-02-05 21:30:21,15.08841668,0.0001677,53.219,96.9819,84.007,276.1114,4.4986e-06,-2.16e-06,0.0,0 STARLINK-4482,1 53530U 22101D   23036.89608543 -.00000216  00000-0  44986-5 0  9995,2 53530  53.2190  96.9819 0001677  84.0070 276.1114 15.08841668 25905,6917.875,95.437,540.9,538.58,0.0
53530.0,STARLINK-4482,PAYLOAD,2023-02-06 03:51:54,15.08842428,0.0001533,53.2184,95.792,85.7015,274.4152,1.2758e-05,-8.5e-07,0.0,0 STARLINK-4482,1 53530U 22101D   23037.16104375 -.00000085  00000-0  12758-4 0  9995,2 53530  53.2184  95.7920 0001533  85.7015 274.4152 15.08842428 25948,6917.873,95.437,540.798,538.677,0.0
